*******************************************************************************
Ephemeris / WWW_USER Mon Mar 24 07:48:12 2025 Pasadena, USA      / Horizons    
*******************************************************************************
Target body name: (2018 TB)                       {source: JPL#26}
Center body name: Earth (399)                     {source: DE441}
Center-site name: Mauna Kea
*******************************************************************************
Start time      : A.D. 2018-Nov-11 03:53:00.0000 UT      
Stop  time      : A.D. 2018-Nov-11 16:18:00.0000 UT      
Step-size       : 1 minutes
*******************************************************************************
Target pole/equ : undefined
Target radii    : undefined                                                    
Center geodetic : 204.5278, 19.8260847, 4.21024   {E-lon(deg),Lat(deg),Alt(km)}
Center cylindric: 204.5278, 6006.35451, 2151.0229 {E-lon(deg),Dxy(km),Dz(km)}
Center pole/equ : ITRF93                          {East-longitude positive}
Center radii    : 6378.137, 6378.137, 6356.752 km {Equator_a, b, pole_c}       
Target primary  : Sun
Vis. interferer : MOON (R_eq= 1737.400) km        {source: DE441}
Rel. light bend : Sun                             {source: DE441}
Rel. lght bnd GM: 1.3271E+11 km^3/s^2                                          
Small-body perts: Yes                             {source: SB441-N16}
Atmos refraction: NO (AIRLESS)
RA format       : HMS
Time format     : CAL 
Calendar mode   : Mixed Julian/Gregorian
RTS-only print  : NO       
EOP file        : eop.250321.p250617                                           
EOP coverage    : DATA-BASED 1962-JAN-20 TO 2025-MAR-21. PREDICTS-> 2025-JUN-16
Units conversion: 1 au= 149597870.700 km, c= 299792.458 km/s, 1 day= 86400.0 s 
Table cut-offs 1: Elevation (-90.0deg=NO ),Airmass (>38.000=NO), Daylight (YES)
Table cut-offs 2: Solar elongation (  0.0,180.0=NO ),Local Hour Angle( 0.0=NO )
Table cut-offs 3: RA/DEC angular rate (     0.0=NO )                           
*******************************************************************************
Initial IAU76/J2000 heliocentric ecliptic osculating elements (au, days, deg.):
  EPOCH=  2458410.5 ! 2018-Oct-19.00 (TDB)         Residual RMS= .12604        
   EC= .5817616216321111   QR= 1.001672821897195   TP= 2458383.1822299529      
   OM= 14.42282174156359   W=  341.1556337077549   IN= 3.61300419916586        
  Equivalent ICRF heliocentric cartesian coordinates (au, au/d):
   X= 9.381709462996228E-01  Y= 4.515017153732180E-01  Z= 2.129237315158303E-01
  VX=-5.799214133182419E-03 VY= 1.778204046057418E-02 VZ= 9.138573561666745E-03
Asteroid physical parameters (km, seconds, rotational period in hours):        
   GM= n.a.                RAD= n.a.               ROTPER= n.a.                
   H= 24.89                G= .150                 B-V= n.a.                   
                           ALBEDO= n.a.            STYP= n.a.                  
*******************************************************************************
 Date__(UT)__HR:MN     R.A._________(ICRF)_________DEC
******************************************************
$$SOE
 2018-Nov-11 07:59     03 50 57.438555 +32 43 20.68906
 2018-Nov-11 08:00     03 50 57.406447 +32 43 20.58491
 2018-Nov-11 08:01     03 50 57.374300 +32 43 20.48044
 2018-Nov-11 08:02     03 50 57.342112 +32 43 20.37567
 2018-Nov-11 08:03     03 50 57.309884 +32 43 20.27058
 2018-Nov-11 08:04     03 50 57.277617 +32 43 20.16518
 2018-Nov-11 08:05     03 50 57.245310 +32 43 20.05946
 2018-Nov-11 08:06     03 50 57.212964 +32 43 19.95342
 2018-Nov-11 08:07     03 50 57.180578 +32 43 19.84707
 2018-Nov-11 08:08     03 50 57.148154 +32 43 19.74040
 2018-Nov-11 08:09     03 50 57.115691 +32 43 19.63341
 2018-Nov-11 08:10     03 50 57.083189 +32 43 19.52610
 2018-Nov-11 08:11     03 50 57.050649 +32 43 19.41847
 2018-Nov-11 08:12     03 50 57.018071 +32 43 19.31051
 2018-Nov-11 08:13     03 50 56.985455 +32 43 19.20223
 2018-Nov-11 08:14     03 50 56.952801 +32 43 19.09362
 2018-Nov-11 08:15     03 50 56.920110 +32 43 18.98469
 2018-Nov-11 08:16     03 50 56.887381 +32 43 18.87543
 2018-Nov-11 08:17     03 50 56.854616 +32 43 18.76584
 2018-Nov-11 08:18     03 50 56.821813 +32 43 18.65592
 2018-Nov-11 08:19     03 50 56.788974 +32 43 18.54567
 2018-Nov-11 08:20     03 50 56.756098 +32 43 18.43508
 2018-Nov-11 08:21     03 50 56.723186 +32 43 18.32417
 2018-Nov-11 08:22     03 50 56.690237 +32 43 18.21291
 2018-Nov-11 08:23     03 50 56.657253 +32 43 18.10133
 2018-Nov-11 08:24     03 50 56.624234 +32 43 17.98941
 2018-Nov-11 08:25     03 50 56.591178 +32 43 17.87715
 2018-Nov-11 08:26     03 50 56.558088 +32 43 17.76455
 2018-Nov-11 08:27     03 50 56.524962 +32 43 17.65161
 2018-Nov-11 08:28     03 50 56.491802 +32 43 17.53833
 2018-Nov-11 08:29     03 50 56.458607 +32 43 17.42471
 2018-Nov-11 08:30     03 50 56.425378 +32 43 17.31074
 2018-Nov-11 08:31     03 50 56.392115 +32 43 17.19644
 2018-Nov-11 08:32     03 50 56.358817 +32 43 17.08179
 2018-Nov-11 08:33     03 50 56.325486 +32 43 16.96679
 2018-Nov-11 08:34     03 50 56.292121 +32 43 16.85144
 2018-Nov-11 08:35     03 50 56.258723 +32 43 16.73575
 2018-Nov-11 08:36     03 50 56.225292 +32 43 16.61971
 2018-Nov-11 08:37     03 50 56.191828 +32 43 16.50332
 2018-Nov-11 08:38     03 50 56.158332 +32 43 16.38658
 2018-Nov-11 08:39     03 50 56.124803 +32 43 16.26949
 2018-Nov-11 08:40     03 50 56.091241 +32 43 16.15204
 2018-Nov-11 08:41     03 50 56.057648 +32 43 16.03425
 2018-Nov-11 08:42     03 50 56.024023 +32 43 15.91609
 2018-Nov-11 08:43     03 50 55.990366 +32 43 15.79759
 2018-Nov-11 08:44     03 50 55.956678 +32 43 15.67872
 2018-Nov-11 08:45     03 50 55.922959 +32 43 15.55950
 2018-Nov-11 08:46     03 50 55.889210 +32 43 15.43992
 2018-Nov-11 08:47     03 50 55.855429 +32 43 15.31998
 2018-Nov-11 08:48     03 50 55.821618 +32 43 15.19968
 2018-Nov-11 08:49     03 50 55.787777 +32 43 15.07902
 2018-Nov-11 08:50     03 50 55.753906 +32 43 14.95800
 2018-Nov-11 08:51     03 50 55.720005 +32 43 14.83662
 2018-Nov-11 08:52     03 50 55.686074 +32 43 14.71487
 2018-Nov-11 08:53     03 50 55.652114 +32 43 14.59276
 2018-Nov-11 08:54     03 50 55.618126 +32 43 14.47028
 2018-Nov-11 08:55     03 50 55.584108 +32 43 14.34744
 2018-Nov-11 08:56     03 50 55.550062 +32 43 14.22423
 2018-Nov-11 08:57     03 50 55.515987 +32 43 14.10065
 2018-Nov-11 08:58     03 50 55.481884 +32 43 13.97671
 2018-Nov-11 08:59     03 50 55.447753 +32 43 13.85239
 2018-Nov-11 09:00     03 50 55.413595 +32 43 13.72771
 2018-Nov-11 09:01     03 50 55.379409 +32 43 13.60265
 2018-Nov-11 09:02     03 50 55.345196 +32 43 13.47722
 2018-Nov-11 09:03     03 50 55.310956 +32 43 13.35142
 2018-Nov-11 09:04     03 50 55.276689 +32 43 13.22525
 2018-Nov-11 09:05     03 50 55.242396 +32 43 13.09870
 2018-Nov-11 09:06     03 50 55.208076 +32 43 12.97177
 2018-Nov-11 09:07     03 50 55.173730 +32 43 12.84447
 2018-Nov-11 09:08     03 50 55.139359 +32 43 12.71680
 2018-Nov-11 09:09     03 50 55.104962 +32 43 12.58874
 2018-Nov-11 09:10     03 50 55.070539 +32 43 12.46031
 2018-Nov-11 09:11     03 50 55.036092 +32 43 12.33150
 2018-Nov-11 09:12     03 50 55.001619 +32 43 12.20231
 2018-Nov-11 09:13     03 50 54.967122 +32 43 12.07274
 2018-Nov-11 09:14     03 50 54.932601 +32 43 11.94279
 2018-Nov-11 09:15     03 50 54.898055 +32 43 11.81246
 2018-Nov-11 09:16     03 50 54.863485 +32 43 11.68174
 2018-Nov-11 09:17     03 50 54.828892 +32 43 11.55064
 2018-Nov-11 09:18     03 50 54.794276 +32 43 11.41916
 2018-Nov-11 09:19     03 50 54.759636 +32 43 11.28729
 2018-Nov-11 09:20     03 50 54.724973 +32 43 11.15504
 2018-Nov-11 09:21     03 50 54.690287 +32 43 11.02240
 2018-Nov-11 09:22     03 50 54.655579 +32 43 10.88938
 2018-Nov-11 09:23     03 50 54.620849 +32 43 10.75597
 2018-Nov-11 09:24     03 50 54.586097 +32 43 10.62217
 2018-Nov-11 09:25     03 50 54.551323 +32 43 10.48798
 2018-Nov-11 09:26     03 50 54.516528 +32 43 10.35341
 2018-Nov-11 09:27     03 50 54.481711 +32 43 10.21844
 2018-Nov-11 09:28     03 50 54.446873 +32 43 10.08308
 2018-Nov-11 09:29     03 50 54.412015 +32 43 09.94733
 2018-Nov-11 09:30     03 50 54.377136 +32 43 09.81120
 2018-Nov-11 09:31     03 50 54.342236 +32 43 09.67466
 2018-Nov-11 09:32     03 50 54.307317 +32 43 09.53774
 2018-Nov-11 09:33     03 50 54.272378 +32 43 09.40042
 2018-Nov-11 09:34     03 50 54.237419 +32 43 09.26271
 2018-Nov-11 09:35     03 50 54.202441 +32 43 09.12461
 2018-Nov-11 09:36     03 50 54.167445 +32 43 08.98610
 2018-Nov-11 09:37     03 50 54.132429 +32 43 08.84721
 2018-Nov-11 09:38     03 50 54.097395 +32 43 08.70792
 2018-Nov-11 09:39     03 50 54.062342 +32 43 08.56823
 2018-Nov-11 09:40     03 50 54.027271 +32 43 08.42814
 2018-Nov-11 09:41     03 50 53.992183 +32 43 08.28766
 2018-Nov-11 09:42     03 50 53.957077 +32 43 08.14677
 2018-Nov-11 09:43     03 50 53.921954 +32 43 08.00549
 2018-Nov-11 09:44     03 50 53.886813 +32 43 07.86381
 2018-Nov-11 09:45     03 50 53.851656 +32 43 07.72173
 2018-Nov-11 09:46     03 50 53.816483 +32 43 07.57925
 2018-Nov-11 09:47     03 50 53.781293 +32 43 07.43637
 2018-Nov-11 09:48     03 50 53.746087 +32 43 07.29309
 2018-Nov-11 09:49     03 50 53.710865 +32 43 07.14941
 2018-Nov-11 09:50     03 50 53.675628 +32 43 07.00532
 2018-Nov-11 09:51     03 50 53.640375 +32 43 06.86083
 2018-Nov-11 09:52     03 50 53.605107 +32 43 06.71594
 2018-Nov-11 09:53     03 50 53.569825 +32 43 06.57065
 2018-Nov-11 09:54     03 50 53.534528 +32 43 06.42495
 2018-Nov-11 09:55     03 50 53.499217 +32 43 06.27884
 2018-Nov-11 09:56     03 50 53.463892 +32 43 06.13234
 2018-Nov-11 09:57     03 50 53.428552 +32 43 05.98542
 2018-Nov-11 09:58     03 50 53.393200 +32 43 05.83811
 2018-Nov-11 09:59     03 50 53.357834 +32 43 05.69038
 2018-Nov-11 10:00     03 50 53.322455 +32 43 05.54225
 2018-Nov-11 10:01     03 50 53.287064 +32 43 05.39371
